NORAD_CAT_ID,OBJECT_NAME,OBJECT_TYPE,EPOCH,MEAN_MOTION,ECCENTRICITY,INCLINATION,RA_OF_ASC_NODE,ARG_OF_PERICENTER,MEAN_ANOMALY,BSTAR,MEAN_MOTION_DOT,MEAN_MOTION_DDOT,TLE_LINE0,TLE_LINE1,TLE_LINE2,SEMIMAJOR_AXIS,PERIOD,APOGEE,PERIGEE,DECAYED
51865.0,STARLINK-3503,PAYLOAD,2022-07-26 14:00:01,15.0885182,0.0002275,53.2152,184.2941,40.1976,156.2925,-0.0020909,-0.00033423,0.0,0 STARLINK-3503,1 51865U 22022P   22207.58334491 -.00033423  00000-0 -20909-2 0  9992,2 51865  53.2152 184.2941 0002275  40.1976 156.2925 15.08851820 23516,6917.844,95.437,541.283,538.135,0.0
51865.0,STARLINK-3503,PAYLOAD,2022-07-26 22:00:00,15.08832899,0.0002188,53.2156,182.7968,45.3318,162.7525,0.0013690999999999,0.00021564,0.0,0 STARLINK-3503,1 51865U 22022P   22207.91667824  .00021564  00000-0  13691-2 0  9999,2 51865  53.2156 182.7968 0002188  45.3318 162.7525 15.08832899  1308,6917.901999999999,95.438,541.281,538.253,0.0
51865.0,STARLINK-3503,PAYLOAD,2022-07-27 06:00:02,15.08837274,0.0002408,53.2157,181.302,41.6607,178.088,0.00029628,4.429999999999999e-05,0.0,0 STARLINK-3503,1 51865U 22022P   22208.25002315  .00004430  00000-0  29628-3 0  9996,2 51865  53.2157 181.3020 0002408  41.6607 178.0880 15.08837274 23612,6917.889,95.438,541.42,538.0880000000002,0.0
51865.0,STARLINK-3503,PAYLOAD,2022-07-27 14:00:01,15.08862936,0.0002323999999999,53.2158,179.8048,42.4095,188.8662,-0.0022147,-0.00035386,0.0,0 STARLINK-3503,1 51865U 22022P   22208.58334491 -.00035386  00000-0 -22147-2 0  9999,2 51865  53.2158 179.8048 0002324  42.4095 188.8662 15.08862936  1304,6917.81,95.436,541.283,538.068,0.0
51865.0,STARLINK-3503,PAYLOAD,2022-07-27 22:00:00,15.0884694,0.000224,53.2161,178.3077,47.4982,195.3839,0.0011568,0.00018174,0.0,0 STARLINK-3503,1 51865U 22022P   22208.91667824  .00018174  00000-0  11568-2 0  9994,2 51865  53.2161 178.3077 0002240  47.4982 195.3839 15.08846940  1307,6917.859,95.437,541.274,538.175,0.0
51865.0,STARLINK-3503,PAYLOAD,2022-07-28 14:00:01,15.08853901,0.0002275,53.2161,175.3156,42.9277,223.1728,-0.0031436,-0.00049993,0.0,0 STARLINK-3503,1 51865U 22022P   22209.58334491 -.00049993  00000-0 -31436-2 0  9990,2 51865  53.2161 175.3156 0002275  42.9277 223.1728 15.08853901  1309,6917.8380000000025,95.437,541.2769999999998,538.129,0.0
51865.0,STARLINK-3503,PAYLOAD,2022-07-28 22:00:00,15.08831712,0.0002171999999999,53.2164,173.8187,47.4301,230.2575,0.00079204,0.00012337,0.0,0 STARLINK-3503,1 51865U 22022P   22209.91667824  .00012337  00000-0  79204-3 0  9992,2 51865  53.2164 173.8187 0002172  47.4301 230.2575 15.08831712  1308,6917.906,95.438,541.273,538.268,0.0
51865.0,STARLINK-3503,PAYLOAD,2022-07-29 00:00:00,15.08848057,0.0002208,53.2165,173.4452,46.2087,324.3714,-0.0013297,-0.00021393,0.0,0 STARLINK-3503,1 51865U 22022P   22210.00001157 -.00021393  00000-0 -13297-2 0  9998,2 51865  53.2165 173.4452 0002208  46.2087 324.3714 15.08848057 23885,6917.856,95.437,541.248,538.193,0.0
51865.0,STARLINK-3503,PAYLOAD,2022-07-29 14:00:01,15.08849278,0.0002279999999999,53.2162,170.8267,45.0658,255.7942,-0.0020179,-0.00032269,0.0,0 STARLINK-3503,1 51865U 22022P   22210.58334491 -.00032269  00000-0 -20179-2 0  9992,2 51865  53.2162 170.8267 0002280  45.0658 255.7942 15.08849278  1307,6917.852,95.437,541.294,538.14,0.0
51865.0,STARLINK-3503,PAYLOAD,2022-07-29 22:00:00,15.08841634,0.0002218999999999,53.2164,169.33,49.8275,262.6207,0.00026845,3.987e-05,0.0,0 STARLINK-3503,1 51865U 22022P   22210.91667824  .00003987  00000-0  26845-3 0  9998,2 51865  53.2164 169.3300 0002219  49.8275 262.6207 15.08841634  1308,6917.875,95.437,541.275,538.205,0.0
51865.0,STARLINK-3503,PAYLOAD,2022-07-30 14:00:01,15.08851882,0.0002331,53.2161,166.3378,47.8621,287.7769,-0.0016824,-0.00026974,0.0,0 STARLINK-3503,1 51865U 22022P   22211.58334491 -.00026974  00000-0 -16824-2 0  9991,2 51865  53.2161 166.3378 0002331  47.8621 287.7769 15.08851882  1302,6917.844,95.437,541.322,538.097,0.0
51865.0,STARLINK-3503,PAYLOAD,2022-07-30 22:00:00,15.088517499999998,0.0002301,53.2163,164.8412,51.9997,295.2340000000001,-9.844e-05,-1.855e-05,0.0,0 STARLINK-3503,1 51865U 22022P   22211.91667824 -.00001855  00000-0 -98440-4 0  9994,2 51865  53.2163 164.8412 0002301  51.9997 295.2340 15.08851750  1308,6917.844,95.437,541.3009999999998,538.118,0.0
51865.0,STARLINK-3503,PAYLOAD,2022-07-31 06:00:02,15.08835245,0.0002478,53.2162,163.3465,47.4665,311.4412,0.0009102,0.00014226,0.0,0 STARLINK-3503,1 51865U 22022P   22212.25002315  .00014226  00000-0  91020-3 0  9990,2 51865  53.2162 163.3465 0002478  47.4665 311.4412 15.08835245 24213,6917.895,95.438,541.474,538.0459999999998,0.0
51865.0,STARLINK-3503,PAYLOAD,2022-07-31 14:00:01,15.08845275,0.0002333,53.2161,161.8488,48.7373,321.7084,-0.0028747,-0.00045757,0.0,0 STARLINK-3503,1 51865U 22022P   22212.58334491 -.00045757  00000-0 -28747-2 0  9999,2 51865  53.2161 161.8488 0002333  48.7373 321.7084 15.08845275  1308,6917.864000000001,95.437,541.3430000000002,538.115,0.0
51865.0,STARLINK-3503,PAYLOAD,2022-07-31 22:00:00,15.08834387,0.0002311999999999,53.2162,160.3524,51.5402,330.4831,-0.00040456,-6.720000000000001e-05,0.0,0 STARLINK-3503,1 51865U 22022P   22212.91667824 -.00006720  00000-0 -40456-3 0  9994,2 51865  53.2162 160.3524 0002312  51.5402 330.4831 15.08834387 24322,6917.898,95.438,541.362,538.163,0.0
51865.0,STARLINK-3503,PAYLOAD,2022-08-01 14:00:01,15.08835058,0.0002396,53.2163,157.3598,50.0066,355.1827,-0.00054285,-8.917e-05,0.0,0 STARLINK-3503,1 51865U 22022P   22213.58334491 -.00008917  00000-0 -54285-3 0  9994,2 51865  53.2163 157.3598 0002396  50.0066 355.1827 15.08835058  1300,6917.895,95.438,541.418,538.1030000000002,0.0
51865.0,STARLINK-3503,PAYLOAD,2022-08-01 22:00:00,15.08849023,0.0002437,53.2164,155.8634,52.7354,4.0336,-0.00071455,-0.00011646,0.0,0 STARLINK-3503,1 51865U 22022P   22213.91667824 -.00011646  00000-0 -71455-3 0  9991,2 51865  53.2164 155.8634 0002437  52.7354   4.0336 15.08849023  1302,6917.853,95.437,541.404,538.0319999999998,0.0
51865.0,STARLINK-3503,PAYLOAD,2022-08-02 06:00:02,15.08818273,0.0002609,53.2164,154.3686,48.9617,19.4751,0.0026225,0.00041673,0.0,0 STARLINK-3503,1 51865U 22022P   22214.25002315  .00041673  00000-0  26225-2 0  9992,2 51865  53.2164 154.3686 0002609  48.9617  19.4751 15.08818273 24526,6917.946999999999,95.439,541.617,538.007,0.0
51865.0,STARLINK-3503,PAYLOAD,2022-08-02 14:00:01,15.08843291,0.0002485999999999,53.2166,152.8706,51.923,28.0431,-1.5895999999999998e-05,-5.41e-06,0.0,0 STARLINK-3503,1 51865U 22022P   22214.58334491 -.00000541  00000-0 -15896-4 0  9996,2 51865  53.2166 152.8706 0002486  51.9230  28.0431 15.08843291 24576,6917.87,95.437,541.455,538.016,0.0
51865.0,STARLINK-3503,PAYLOAD,2022-08-03 14:00:01,15.08827281,0.000246,53.2168,148.3815,52.4863,62.2793,0.00059689,9.221e-05,0.0,0 STARLINK-3503,1 51865U 22022P   22215.58334491  .00009221  00000-0  59689-3 0  9996,2 51865  53.2168 148.3815 0002460  52.4863  62.2793 15.08827281  1307,6917.919,95.438,541.486,538.082,0.0
51865.0,STARLINK-3503,PAYLOAD,2022-08-03 22:00:01,15.08853026,0.0002521,53.2168,146.8852,54.4624,71.9436,-0.0012618,-0.00020322,0.0,0 STARLINK-3503,1 51865U 22022P   22215.91668981 -.00020322  00000-0 -12618-2 0  9994,2 51865  53.2168 146.8852 0002521  54.4624  71.9436 15.08853026  1303,6917.840999999999,95.437,541.45,537.962,0.0
51865.0,STARLINK-3503,PAYLOAD,2022-08-04 14:00:01,15.08834057,0.0002417,53.2167,143.8922,53.7975,95.7528,-0.0011133,-0.00017961,0.0,0 STARLINK-3503,1 51865U 22022P   22216.58334491 -.00017961  00000-0 -11133-2 0  9990,2 51865  53.2167 143.8922 0002417  53.7975  95.7528 15.08834057  1301,6917.899,95.438,541.436,538.091,0.0
51865.0,STARLINK-3503,PAYLOAD,2022-08-04 22:00:00,15.08841552,0.000245,53.2168,142.3962,54.9956,106.1317,-0.0013814,-0.00022208,0.0,0 STARLINK-3503,1 51865U 22022P   22216.91667824 -.00022208  00000-0 -13814-2 0  9994,2 51865  53.2168 142.3962 0002450  54.9956 106.1317 15.08841552 24923,6917.876,95.437,541.436,538.0459999999998,0.0
51865.0,STARLINK-3503,PAYLOAD,2022-08-05 14:00:01,15.08821486,0.0002395,53.2164,139.403,55.7876,128.5783,0.0016317,0.00025763,0.0,0 STARLINK-3503,1 51865U 22022P   22217.58335648  .00025763  00000-0  16317-2 0  9992,2 51865  53.2164 139.4030 0002395  55.7876 128.5783 15.08821486 25021,6917.937,95.439,541.4590000000002,538.145,0.0
51865.0,STARLINK-3503,PAYLOAD,2022-08-05 22:00:00,15.08856965,0.0002463,53.2165,137.9073,57.3117,138.5726,-0.0014652,-0.00023543,0.0,0 STARLINK-3503,1 51865U 22022P   22217.91667824 -.00023543  00000-0 -14652-2 0  9999,2 51865  53.2165 137.9073 0002463  57.3117 138.5726 15.08856965  1307,6917.829000000002,95.436,541.3969999999998,537.99,0.0
51865.0,STARLINK-3503,PAYLOAD,2022-08-06 14:00:01,15.08837965,0.000236,53.2161,134.9138,57.981,161.1174,-0.00066054,-0.00010785,0.0,0 STARLINK-3503,1 51865U 22022P   22218.58334491 -.00010785  00000-0 -66054-3 0  9992,2 51865  53.2161 134.9138 0002360  57.9810 161.1174 15.08837965 25173,6917.887,95.438,541.384,538.119,0.0
51865.0,STARLINK-3503,PAYLOAD,2022-08-06 22:00:00,15.088437699999998,0.0002405,53.2162,133.4184,58.2325,172.4522,-0.001455,-0.00023373,0.0,0 STARLINK-3503,1 51865U 22022P   22218.91667824 -.00023373  00000-0 -14550-2 0  9998,2 51865  53.2162 133.4184 0002405  58.2325 172.4522 15.08843770  1306,6917.869000000002,95.437,541.398,538.07,0.0
51865.0,STARLINK-3503,PAYLOAD,2022-08-07 14:00:01,15.08818143,0.0002375,53.2159,130.4247,59.8337,194.0334,0.0025311,0.00040201,0.0,0 STARLINK-3503,1 51865U 22022P   22219.58334491  .00040201  00000-0  25311-2 0  9997,2 51865  53.2159 130.4247 0002375  59.8337 194.0334 15.08818143  1302,6917.946999999999,95.439,541.455,538.169,0.0
51865.0,STARLINK-3503,PAYLOAD,2022-08-07 19:14:19,15.08842384,0.0002446,53.218,129.4459,58.0022,302.1208,7.0544e-05,8.35e-06,0.0,0 STARLINK-3503,1 51865U 22022P   22219.80161719  .00000835  00000-0  70544-4 0  9992,2 51865  53.2180 129.4459 0002446  58.0022 302.1208 15.08842384 25368,6917.873000000001,95.437,541.43,538.0459999999998,0.0
